{
  "type": "FeatureCollection",
  "features": [
    {
      "type": "Feature",
      "properties": {
        "norad_id": 36049,
        "name": "COSMOS 2251 DEB",
        "group": "cosmos-2251-debris",
        "lat": -20.959506515804016,
        "lon": -78.78869348928052,
        "alt_km": 684.0069073007153,
        "timestamp": "2025-12-25T09:48:52.686141+00:00",
        "meta_object_name": "COSMOS 2251 DEB",
        "meta_object_id": "1993-036AXL",
        "meta_epoch": "2025-12-24T16:28:33.256992",
        "meta_mean_motion": 14.62291602,
        "meta_eccentricity": 0.00099539,
        "meta_inclination": 74.0314,
        "meta_ra_of_asc_node": 96.2976,
        "meta_arg_of_pericenter": 184.7355,
        "meta_mean_anomaly": 175.3719,
        "meta_ephemeris_type": 0,
        "meta_classification_type": "U",
        "meta_norad_cat_id": 36049,
        "meta_element_set_no": 999,
        "meta_rev_at_epoch": 85539,
        "meta_bstar": 0.0013226671,
        "meta_mean_motion_dot": 6.656e-05,
        "meta_mean_motion_ddot": 0,
        "tle_line1": "1 36049U 93036AXL 25358.68649603  .00006656  00000+0  13227-2 0  9997",
        "tle_line2": "2 36049  74.0314  96.2976 0009953 184.7355 175.3719 14.62291602855397"
      },
      "geometry": {
        "type": "Point",
        "coordinates": [
          -78.78869348928052,
          -20.959506515804016
        ]
      }
    },
    {
      "type": "Feature",
      "properties": {
        "norad_id": 36050,
        "name": "COSMOS 2251 DEB",
        "group": "cosmos-2251-debris",
        "lat": -61.01048828331065,
        "lon": 19.341627219255706,
        "alt_km": 508.60294327135034,
        "timestamp": "2025-12-25T09:48:52.686151+00:00",
        "meta_object_name": "COSMOS 2251 DEB",
        "meta_object_id": "1993-036AXM",
        "meta_epoch": "2025-12-23T18:20:06.375552",
        "meta_mean_motion": 15.01191833,
        "meta_eccentricity": 0.00883826,
        "meta_inclination": 74.0302,
        "meta_ra_of_asc_node": 171.57,
        "meta_arg_of_pericenter": 248.7055,
        "meta_mean_anomaly": 110.468,
        "meta_ephemeris_type": 0,
        "meta_classification_type": "U",
        "meta_norad_cat_id": 36050,
        "meta_element_set_no": 999,
        "meta_rev_at_epoch": 67200,
        "meta_bstar": 0.00066513085,
        "meta_mean_motion_dot": 9.246e-05,
        "meta_mean_motion_ddot": 0,
        "tle_line1": "1 36050U 93036AXM 25357.76396268  .00009246  00000+0  66513-3 0  9998",
        "tle_line2": "2 36050  74.0302 171.5700 0088382 248.7055 110.4680 15.01191833672000"
      },
      "geometry": {
        "type": "Point",
        "coordinates": [
          19.341627219255706,
          -61.01048828331065
        ]
      }
    },
    {
      "type": "Feature",
      "properties": {
        "norad_id": 36053,
        "name": "COSMOS 2251 DEB",
        "group": "cosmos-2251-debris",
        "lat": -44.43556359323832,
        "lon": 111.89124891143648,
        "alt_km": 719.603063997999,
        "timestamp": "2025-12-25T09:48:52.686161+00:00",
        "meta_object_name": "COSMOS 2251 DEB",
        "meta_object_id": "1993-036AXQ",
        "meta_epoch": "2025-12-24T02:43:33.726720",
        "meta_mean_motion": 14.57309353,
        "meta_eccentricity": 0.00324773,
        "meta_inclination": 73.8708,
        "meta_ra_of_asc_node": 130.8593,
        "meta_arg_of_pericenter": 76.0407,
        "meta_mean_anomaly": 284.4365,
        "meta_ephemeris_type": 0,
        "meta_classification_type": "U",
        "meta_norad_cat_id": 36053,
        "meta_element_set_no": 999,
        "meta_rev_at_epoch": 87610,
        "meta_bstar": 0.0014302573,
        "meta_mean_motion_dot": 6.496e-05,
        "meta_mean_motion_ddot": 0,
        "tle_line1": "1 36053U 93036AXQ 25358.11358480  .00006496  00000+0  14303-2 0  9998",
        "tle_line2": "2 36053  73.8708 130.8593 0032477  76.0407 284.4365 14.57309353876102"
      },
      "geometry": {
        "type": "Point",
        "coordinates": [
          111.89124891143648,
          -44.43556359323832
        ]
      }
    },
    {
      "type": "Feature",
      "properties": {
        "norad_id": 36058,
        "name": "COSMOS 2251 DEB",
        "group": "cosmos-2251-debris",
        "lat": 31.78118670800391,
        "lon": 179.0911498707163,
        "alt_km": 664.0852866649502,
        "timestamp": "2025-12-25T09:48:52.686171+00:00",
        "meta_object_name": "COSMOS 2251 DEB",
        "meta_object_id": "1993-036AXV",
        "meta_epoch": "2025-12-20T18:52:04.818432",
        "meta_mean_motion": 14.58726339,
        "meta_eccentricity": 0.00440828,
        "meta_inclination": 74.0229,
        "meta_ra_of_asc_node": 18.1226,
        "meta_arg_of_pericenter": 150.2394,
        "meta_mean_anomaly": 210.1292,
        "meta_ephemeris_type": 0,
        "meta_classification_type": "U",
        "meta_norad_cat_id": 36058,
        "meta_element_set_no": 999,
        "meta_rev_at_epoch": 66228,
        "meta_bstar": 0.0002931852,
        "meta_mean_motion_dot": 1.357e-05,
        "meta_mean_motion_ddot": 0,
        "tle_line1": "1 36058U 93036AXV 25354.78616688  .00001357  00000+0  29319-3 0  9994",
        "tle_line2": "2 36058  74.0229  18.1226 0044082 150.2394 210.1292 14.58726339662289"
      },
      "geometry": {
        "type": "Point",
        "coordinates": [
          179.0911498707163,
          31.78118670800391
        ]
      }
    },
    {
      "type": "Feature",
      "properties": {
        "norad_id": 36060,
        "name": "COSMOS 2251 DEB",
        "group": "cosmos-2251-debris",
        "lat": 7.795158389188439,
        "lon": -146.681193901602,
        "alt_km": 748.0442323907537,
        "timestamp": "2025-12-25T09:48:52.686180+00:00",
        "meta_object_name": "COSMOS 2251 DEB",
        "meta_object_id": "1993-036AXX",
        "meta_epoch": "2025-12-24T20:27:25.953408",
        "meta_mean_motion": 14.42023746,
        "meta_eccentricity": 0.0015617,
        "meta_inclination": 74.0276,
        "meta_ra_of_asc_node": 212.1036,
        "meta_arg_of_pericenter": 307.841,
        "meta_mean_anomaly": 52.1332,
        "meta_ephemeris_type": 0,
        "meta_classification_type": "U",
        "meta_norad_cat_id": 36060,
        "meta_element_set_no": 999,
        "meta_rev_at_epoch": 85184,
        "meta_bstar": 0.00026955178,
        "meta_mean_motion_dot": 8.59e-06,
        "meta_mean_motion_ddot": 0,
        "tle_line1": "1 36060U 93036AXX 25358.85238372  .00000859  00000+0  26955-3 0  9998",
        "tle_line2": "2 36060  74.0276 212.1036 0015617 307.8410  52.1332 14.42023746851846"
      },
      "geometry": {
        "type": "Point",
        "coordinates": [
          -146.681193901602,
          7.795158389188439
        ]
      }
    },
    {
      "type": "Feature",
      "properties": {
        "norad_id": 36061,
        "name": "COSMOS 2251 DEB",
        "group": "cosmos-2251-debris",
        "lat": 7.59214245459302,
        "lon": 154.38259060805126,
        "alt_km": 790.3878434288254,
        "timestamp": "2025-12-25T09:48:52.686213+00:00",
        "meta_object_name": "COSMOS 2251 DEB",
        "meta_object_id": "1993-036AXY",
        "meta_epoch": "2025-12-23T15:09:10.673856",
        "meta_mean_motion": 14.33725339,
        "meta_eccentricity": 0.00369201,
        "meta_inclination": 74.0242,
        "meta_ra_of_asc_node": 339.8232,
        "meta_arg_of_pericenter": 64.3412,
        "meta_mean_anomaly": 296.1546,
        "meta_ephemeris_type": 0,
        "meta_classification_type": "U",
        "meta_norad_cat_id": 36061,
        "meta_element_set_no": 999,
        "meta_rev_at_epoch": 65260,
        "meta_bstar": 0.00028137212,
        "meta_mean_motion_dot": 7.61e-06,
        "meta_mean_motion_ddot": 0,
        "tle_line1": "1 36061U 93036AXY 25357.63137354  .00000761  00000+0  28137-3 0  9998",
        "tle_line2": "2 36061  74.0242 339.8232 0036920  64.3412 296.1546 14.33725339652609"
      },
      "geometry": {
        "type": "Point",
        "coordinates": [
          154.38259060805126,
          7.59214245459302
        ]
      }
    },
    {
      "type": "Feature",
      "properties": {
        "norad_id": 36073,
        "name": "COSMOS 2251 DEB",
        "group": "cosmos-2251-debris",
        "lat": -34.083595129434194,
        "lon": -71.83077575595496,
        "alt_km": 767.7072257171349,
        "timestamp": "2025-12-25T09:48:52.686224+00:00",
        "meta_object_name": "COSMOS 2251 DEB",
        "meta_object_id": "1993-036AYL",
        "meta_epoch": "2025-12-18T03:58:06.481920",
        "meta_mean_motion": 14.34959898,
        "meta_eccentricity": 0.00240895,
        "meta_inclination": 74.0326,
        "meta_ra_of_asc_node": 312.6126,
        "meta_arg_of_pericenter": 19.0207,
        "meta_mean_anomaly": 341.1839,
        "meta_ephemeris_type": 0,
        "meta_classification_type": "U",
        "meta_norad_cat_id": 36073,
        "meta_element_set_no": 999,
        "meta_rev_at_epoch": 70285,
        "meta_bstar": 0.0001893667,
        "meta_mean_motion_dot": 5.14e-06,
        "meta_mean_motion_ddot": 0,
        "tle_line1": "1 36073U 93036AYL 25352.16535280  .00000514  00000+0  18937-3 0  9997",
        "tle_line2": "2 36073  74.0326 312.6126 0024089  19.0207 341.1839 14.34959898702857"
      },
      "geometry": {
        "type": "Point",
        "coordinates": [
          -71.83077575595496,
          -34.083595129434194
        ]
      }
    }
  ]
}